{"type": "FeatureCollection", "features": [ {"type": "Feature", "properties": {"norad_id": 66737, "name": "FLOCK 4H-34", "group": "last-30-days", "lat": -38.113997463989236, "lon": -117.47242894601702, "alt_km": 516.757518081642, "timestamp": "2025-12-22T18:58:52.138450+00:00", "meta": {"OBJECT_NAME": "FLOCK 4H-34", "OBJECT_ID": "2025-276BZ", "EPOCH": "2025-12-22T05:22:01.645824", "MEAN_MOTION": 15.18144604, "ECCENTRICITY": 0.00024019, "INCLINATION": 97.4451, "RA_OF_ASC_NODE": 67.8576, "ARG_OF_PERICENTER": 173.6501, "MEAN_ANOMALY": 186.4764, "EPHEMERIS_TYPE": 0, "CLASSIFICATION_TYPE": "U", "NORAD_CAT_ID": 66737, "ELEMENT_SET_NO": 999, "REV_AT_EPOCH": 281, "BSTAR": 0.00062912151, "MEAN_MOTION_DOT": 0.00012791, "MEAN_MOTION_DDOT": 0}, "tle": {"line1": "1 66737U 25276BZ  25356.22363016  .00012791  00000+0  62912-3 0  9997", "line2": "2 66737  97.4451  67.8576 0002401 173.6501 186.4764 15.18144604  2811"}}, "geometry": {"type": "Point", "coordinates": [-117.47242894601702, -38.113997463989236]}}, {"type": "Feature", "properties": {"norad_id": 66738, "name": "FLOCK 4H-35", "group": "last-30-days", "lat": -46.846937157643175, "lon": -119.60562145224075, "alt_km": 517.6637877721014, "timestamp": "2025-12-22T18:58:52.138461+00:00", "meta": {"OBJECT_NAME": "FLOCK 4H-35", "OBJECT_ID": "2025-276CA", "EPOCH": "2025-12-22T02:09:55.235232", "MEAN_MOTION": 15.18231333, "ECCENTRICITY": 0.00023005, "INCLINATION": 97.4406, "RA_OF_ASC_NODE": 67.7183, "ARG_OF_PERICENTER": 151.7865, "MEAN_ANOMALY": 208.3494, "EPHEMERIS_TYPE": 0, "CLASSIFICATION_TYPE": "U", "NORAD_CAT_ID": 66738, "ELEMENT_SET_NO": 999, "REV_AT_EPOCH": 283, "BSTAR": 0.00043096749, "MEAN_MOTION_DOT": 8.758e-05, "MEAN_MOTION_DDOT": 0}, "tle": {"line1": "1 66738U 25276CA  25356.09022263  .00008758  00000+0  43097-3 0  9990", "line2": "2 66738  97.4406  67.7183 0002300 151.7865 208.3494 15.18231333  2835"}}, "geometry": {"type": "Point", "coordinates": [-119.60562145224075, -46.846937157643175]}}, {"type": "Feature", "properties": {"norad_id": 66739, "name": "FLOCK 4H-36", "group": "last-30-days", "lat": -25.141054528604897, "lon": -115.10420884930434, "alt_km": 516.0372244730033, "timestamp": "2025-12-22T18:58:52.138476+00:00", "meta": {"OBJECT_NAME": "FLOCK 4H-36", "OBJECT_ID": "2025-276CB", "EPOCH": "2025-12-22T05:25:24.111264", "MEAN_MOTION": 15.1798548, "ECCENTRICITY": 0.0002369, "INCLINATION": 97.4454, "RA_OF_ASC_NODE": 67.8587, "ARG_OF_PERICENTER": 187.7976, "MEAN_ANOMALY": 172.3222, "EPHEMERIS_TYPE": 0, "CLASSIFICATION_TYPE": "U", "NORAD_CAT_ID": 66739, "ELEMENT_SET_NO": 999, "REV_AT_EPOCH": 356, "BSTAR": 0.00058389131, "MEAN_MOTION_DOT": 0.00011811, "MEAN_MOTION_DDOT": 0}, "tle": {"line1": "1 66739U 25276CB  25356.22597351  .00011811  00000+0  58389-3 0  9995", "line2": "2 66739  97.4454  67.8587 0002369 187.7976 172.3222 15.17985480  3563"}}, "geometry": {"type": "Point", "coordinates": [-115.10420884930434, -25.141054528604897]}}, {"type": "Feature", "properties": {"norad_id": 66740, "name": "TRANSPORTER-15 CC", "group": "last-30-days", "lat": 0.6688334937239829, "lon": -111.51805485651997, "alt_km": 515.0279458606028, "timestamp": "2025-12-22T18:58:52.138487+00:00", "meta": {"OBJECT_NAME": "TRANSPORTER-15 CC", "OBJECT_ID": "2025-276CC", "EPOCH": "2025-12-22T05:32:06.401760", "MEAN_MOTION": 15.1770125, "ECCENTRICITY": 0.00021852, "INCLINATION": 97.4414, "RA_OF_ASC_NODE": 67.8439, "ARG_OF_PERICENTER": 242.5334, "MEAN_ANOMALY": 117.5678, "EPHEMERIS_TYPE": 0, "CLASSIFICATION_TYPE": "U", "NORAD_CAT_ID": 66740, "ELEMENT_SET_NO": 999, "REV_AT_EPOCH": 356, "BSTAR": 0.00056691916, "MEAN_MOTION_DOT": 0.00011371, "MEAN_MOTION_DDOT": 0}, "tle": {"line1": "1 66740U 25276CC  25356.23062965  .00011371  00000+0  56692-3 0  9992", "line2": "2 66740  97.4414  67.8439 0002185 242.5334 117.5678 15.17701250  3568"}}, "geometry": {"type": "Point", "coordinates": [-111.51805485651997, 0.6688334937239829]}}, {"type": "Feature", "properties": {"norad_id": 66741, "name": "TRANSPORTER-15 CD", "group": "last-30-days", "lat": 6.595425259947665, "lon": -110.74961300437778, "alt_km": 514.5329612226788, "timestamp": "2025-12-22T18:58:52.138497+00:00", "meta": {"OBJECT_NAME": "TRANSPORTER-15 CD", "OBJECT_ID": "2025-276CD", "EPOCH": "2025-12-21T20:03:53.371296", "MEAN_MOTION": 15.17530287, "ECCENTRICITY": 0.0001537, "INCLINATION": 97.4414, "RA_OF_ASC_NODE": 67.4463, "ARG_OF_PERICENTER": 203.7117, "MEAN_ANOMALY": 156.4047, "EPHEMERIS_TYPE": 0, "CLASSIFICATION_TYPE": "U", "NORAD_CAT_ID": 66741, "ELEMENT_SET_NO": 999, "REV_AT_EPOCH": 350, "BSTAR": 0.00013950865, "MEAN_MOTION_DOT": 2.732e-05, "MEAN_MOTION_DDOT": 0}, "tle": {"line1": "1 66741U 25276CD  25355.83603439  .00002732  00000+0  13951-3 0  9997", "line2": "2 66741  97.4414  67.4463 0001537 203.7117 156.4047 15.17530287  3506"}}, "geometry": {"type": "Point", "coordinates": [-110.74961300437778, 6.595425259947665]}}, {"type": "Feature", "properties": {"norad_id": 66742, "name": "TRANSPORTER-15 CE", "group": "last-30-days", "lat": -2.3997837612465234, "lon": -111.928289773859, "alt_km": 515.0431847514956, "timestamp": "2025-12-22T18:58:52.138508+00:00", "meta": {"OBJECT_NAME": "TRANSPORTER-15 CE", "OBJECT_ID": "2025-276CE", "EPOCH": "2025-12-22T05:31:17.794848", "MEAN_MOTION": 15.17694992, "ECCENTRICITY": 0.00016583, "INCLINATION": 97.4409, "RA_OF_ASC_NODE": 67.8344, "ARG_OF_PERICENTER": 195.2912, "MEAN_ANOMALY": 164.8272, "EPHEMERIS_TYPE": 0, "CLASSIFICATION_TYPE": "U", "NORAD_CAT_ID": 66742, "ELEMENT_SET_NO": 999, "REV_AT_EPOCH": 356, "BSTAR": 0.00053893341, "MEAN_MOTION_DOT": 0.00010804, "MEAN_MOTION_DDOT": 0}, "tle": {"line1": "1 66742U 25276CE  25356.23006707  .00010804  00000+0  53893-3 0  9996", "line2": "2 66742  97.4409  67.8344 0001658 195.2912 164.8272 15.17694992  3568"}}, "geometry": {"type": "Point", "coordinates": [-111.928289773859, -2.3997837612465234]}}, {"type": "Feature", "properties": {"norad_id": 66743, "name": "TRANSPORTER-15 CF", "group": "last-30-days", "lat": 15.32032840834022, "lon": -109.57072184107514, "alt_km": 509.38544868830104, "timestamp": "2025-12-22T18:58:52.138518+00:00", "meta": {"OBJECT_NAME": "TRANSPORTER-15 CF", "OBJECT_ID": "2025-276CF", "EPOCH": "2025-12-22T07:11:07.852416", "MEAN_MOTION": 15.17939451, "ECCENTRICITY": 0.00040927, "INCLINATION": 97.4405, "RA_OF_ASC_NODE": 67.8943, "ARG_OF_PERICENTER": 154.2993, "MEAN_ANOMALY": 205.8445, "EPHEMERIS_TYPE": 0, "CLASSIFICATION_TYPE": "U", "NORAD_CAT_ID": 66743, "ELEMENT_SET_NO": 999, "REV_AT_EPOCH": 357, "BSTAR": 0.013037249, "MEAN_MOTION_DOT": 0.00274523, "MEAN_MOTION_DDOT": 0}, "tle": {"line1": "1 66743U 25276CF  25356.29939644  .00274523  00000+0  13037-1 0  9992", "line2": "2 66743  97.4405  67.8943 0004092 154.2993 205.8445 15.17939451  3570"}}, "geometry": {"type": "Point", "coordinates": [-109.57072184107514, 15.32032840834022]}}, {"type": "Feature", "properties": {"norad_id": 66744, "name": "TRANSPORTER-15 CG", "group": "last-30-days", "lat": 17.092085337315687, "lon": -109.31340431147385, "alt_km": 502.9841263589278, "timestamp": "2025-12-22T18:58:52.138528+00:00", "meta": {"OBJECT_NAME": "TRANSPORTER-15 CG", "OBJECT_ID": "2025-276CG", "EPOCH": "2025-12-22T04:02:40.788096", "MEAN_MOTION": 15.19150892, "ECCENTRICITY": 0.00070476, "INCLINATION": 97.438, "RA_OF_ASC_NODE": 67.7711, "ARG_OF_PERICENTER": 218.9372, "MEAN_ANOMALY": 141.1356, "EPHEMERIS_TYPE": 0, "CLASSIFICATION_TYPE": "U", "NORAD_CAT_ID": 66744, "ELEMENT_SET_NO": 999, "REV_AT_EPOCH": 355, "BSTAR": 0.040376543, "MEAN_MOTION_DOT": 0.00916134, "MEAN_MOTION_DDOT": 0}, "tle": {"line1": "1 66744U 25276CG  25356.16852764  .00916134  00000+0  40377-1 0  9994", "line2": "2 66744  97.4380  67.7711 0007047 218.9372 141.1356 15.19150892  3554"}}, "geometry": {"type": "Point", "coordinates": [-109.31340431147385, 17.092085337315687]}}, {"type": "Feature", "properties": {"norad_id": 66745, "name": "TRANSPORTER-15 CH", "group": "last-30-days", "lat": 18.305178495301217, "lon": -109.13655155760779, "alt_km": 513.9066135819157, "timestamp": "2025-12-22T18:58:52.138538+00:00", "meta": {"OBJECT_NAME": "TRANSPORTER-15 CH", "OBJECT_ID": "2025-276CH", "EPOCH": "2025-12-22T05:36:38.903040", "MEAN_MOTION": 15.17418705, "ECCENTRICITY": 0.00013987, "INCLINATION": 97.4416, "RA_OF_ASC_NODE": 67.8379, "ARG_OF_PERICENTER": 244.5814, "MEAN_ANOMALY": 115.5275, "EPHEMERIS_TYPE": 0, "CLASSIFICATION_TYPE": "U", "NORAD_CAT_ID": 66745, "ELEMENT_SET_NO": 999, "REV_AT_EPOCH": 356, "BSTAR": 0.00019568629, "MEAN_MOTION_DOT": 3.846e-05, "MEAN_MOTION_DDOT": 0}, "tle": {"line1": "1 66745U 25276CH  25356.23378360  .00003846  00000+0  19569-3 0  9996", "line2": "2 66745  97.4416  67.8379 0001398 244.5814 115.5275 15.17418705  3569"}}, "geometry": {"type": "Point", "coordinates": [-109.13655155760779, 18.305178495301217]}}, {"type": "Feature", "properties": {"norad_id": 66746, "name": "TRANSPORTER-15 CJ", "group": "last-30-days", "lat": 16.14989361481629, "lon": -109.44919681822982, "alt_km": 513.9167082794502, "timestamp": "2025-12-22T18:58:52.138548+00:00", "meta": {"OBJECT_NAME": "TRANSPORTER-15 CJ", "OBJECT_ID": "2025-276CJ", "EPOCH": "2025-12-21T20:06:21.996576", "MEAN_MOTION": 15.17459073, "ECCENTRICITY": 0.0002293, "INCLINATION": 97.4414, "RA_OF_ASC_NODE": 67.4453, "ARG_OF_PERICENTER": 246.6122, "MEAN_ANOMALY": 113.487, "EPHEMERIS_TYPE": 0, "CLASSIFICATION_TYPE": "U", "NORAD_CAT_ID": 66746, "ELEMENT_SET_NO": 999, "REV_AT_EPOCH": 350, "BSTAR": 0.00071492652, "MEAN_MOTION_DOT": 0.00014264, "MEAN_MOTION_DDOT": 0}, "tle": {"line1": "1 66746U 25276CJ  25355.83775459  .00014264  00000+0  71493-3 0  9992", "line2": "2 66746  97.4414  67.4453 0002293 246.6122 113.4870 15.17459073  3502"}}, "geometry": {"type": "Point", "coordinates": [-109.44919681822982, 16.14989361481629]}}]}